STARLINK-3626           
1 51792U 22017AA  24073.84218132  .00001932  00000+0  13944-3 0  9999
2 51792  53.2188   7.5795 0002039 101.0165 259.1057 15.08846163114393
STARLINK-3633           
1 51793U 22017AB  24073.19546101  .00002150  00000+0  15313-3 0  9993
2 51793  53.2192  10.4890 0001550 102.0600 258.0565 15.08845103114294
STARLINK-3573           
1 51794U 22017AC  24073.23865888  .00000219  00000+0  31847-4 0  9990
2 51794  53.2189  10.2853 0001433  93.5790 266.5367 15.08842561114257
STARLINK-3586           
1 51795U 22017AD  24073.52573223 -.00000199  00000+0  56104-5 0  9994
2 51795  53.2191   9.1924 0001311  85.8922 274.2220 15.08836225114291
STARLINK-3630           
1 51796U 22017AE  24073.81368803  .00001625  00000+0  12017-3 0  9990
2 51796  53.2173   7.5963 0001501  93.2718 266.8445 15.08840338114335
STARLINK-3627           
1 51797U 22017AF  24073.93399512  .00012486  00000+0  32381-3 0  9998
2 51797  53.1577 322.6112 0005414 155.5475 204.5788 15.39405068115026
STARLINK-3634           
1 51798U 22017AG  24073.95258091  .00003734  00000+0  25253-3 0  9993
2 51798  53.2192   7.0747 0001682 108.8511 251.2663 15.08845488114406
STARLINK-3637           
1 51799U 22017AH  24073.83114641  .00006341  00000+0  41614-3 0  9999
2 51799  53.2194   7.6239 0001585 113.1740 246.9420 15.08839656114341
STARLINK-3592           
1 51801U 22017AK  24073.95994092  .00001152  00000+0  90433-4 0  9991
2 51801  53.2176   7.0451 0001469 100.1751 259.9407 15.08853574114360
STARLINK-3557           
1 51802U 22017AL  24073.77961764  .00003295  00000+0  22503-3 0  9994
2 51802  53.2185   7.8482 0002476  80.5752 279.5520 15.08843487114337
STARLINK-3544           
1 51803U 22017AM  24073.22026483  .00011259  00000+0  72426-3 0  9993
2 51803  53.2177  10.3656 0001351  97.7521 262.3625 15.08843719114240
STARLINK-3601           
1 51804U 22017AN  24073.49810296  .00001937  00000+0  13975-3 0  9992
2 51804  53.2196 349.1175 0001580  90.8234 269.2940 15.08844670114524
STARLINK-3605           
1 51805U 22017AP  24073.89924089  .00000238  00000+0  33037-4 0  9998
2 51805  53.2205 347.3979 0001470  95.4627 264.6533 15.08819692114672
STARLINK-3581           
1 51806U 22017AQ  24073.91668981  .01025751  00000+0  12756-1 0  9998
2 51806  53.2187 352.7644 0001042 108.9201  90.8649 15.56908343114553
STARLINK-3606           
1 51807U 22017AR  24073.51558184  .00005587  00000+0  36882-3 0  9990
2 51807  53.2181 359.0398 0001249  97.9249 262.1885 15.08841599114486
STARLINK-3609           
1 51808U 22017AS  24073.50085920  .00007143  00000+0  46620-3 0  9994
2 51808  53.2190 359.1079 0001875  82.4084 277.7121 15.08860034114339
STARLINK-3607           
1 51809U 22017AT  24073.77317212  .00009883  00000+0  63811-3 0  9990
2 51809  53.2173 357.8474 0002915  85.4700 274.6625 15.08844703114474
STARLINK-3613           
1 51810U 22017AU  24073.94341908  .00003566  00000+0  24202-3 0  9993
2 51810  53.2181 347.3453 0001334  86.8278 273.2867 15.08841091114510
STARLINK-3569           
1 51811U 22017AV  24073.50454413  .00001001  00000+0  80997-4 0  9998
2 51811  53.2188 359.0907 0001554  87.0782 273.0388 15.08837025114337
STARLINK-3610           
1 51812U 22017AW  24073.91025353 -.00004384  00000+0 -25735-3 0  9998
2 51812  53.2189 347.2679 0001595 109.4848 250.6317 15.08862514114515
STARLINK-3552           
1 51813U 22017AX  24073.75939179 -.00000034  00000+0  15970-4 0  9999
2 51813  53.2198 347.9762 0000970  96.5873 263.5230 15.08825906114494
STARLINK-3599           
1 51814U 22017AY  24073.90290131 -.00001987  00000+0 -10675-3 0  9990
2 51814  53.2180 347.3010 0002044  95.3656 264.7570 15.08847697114510
STARLINK-3604           
1 51815U 22017AZ  24073.90657073 -.00008010  00000+0 -48546-3 0  9995
2 51815  53.2185 347.2842 0001674  93.1122 267.0062 15.08858369114510
STARLINK-3603           
1 51816U 22017BA  24073.92229082  .00000797  00000+0  68141-4 0  9999
2 51816  53.2181 347.4577 0001613  81.1399 278.9775 15.08839361114568
STARLINK-3542           
1 51852U 22022A   24073.92774800 -.00000683  00000+0 -24823-4 0  9993
2 51852  53.2194  37.1945 0001424 104.4047 255.7103 15.08838142112194
STARLINK-3539           
1 51853U 22022B   24073.62961955  .00000637  00000+0  58089-4 0  9998
2 51853  53.2168  38.1429 0001332  93.9419 266.1725 15.08836592113359
STARLINK-3541           
1 51854U 22022C   24073.92406559  .00000315  00000+0  37871-4 0  9995
2 51854  53.2183  37.2070 0001733  89.0211 271.0980 15.08836787113455
STARLINK-3545           
1 51855U 22022D   24073.90933273  .00001824  00000+0  13266-3 0  9999
2 51855  53.2179  37.1947 0001432  99.4416 260.6738 15.08842176113400
STARLINK-3568           
1 51856U 22022E   24073.59013790  .00001908  00000+0  13792-3 0  9995
2 51856  53.2176  38.7154 0001383  91.3765 268.7386 15.08847912113432
STARLINK-3571           
1 51857U 22022F   24073.31414019  .00003897  00000+0  26280-3 0  9990
2 51857  53.2182  39.9537 0001621  99.8463 260.2712 15.08844592113364
STARLINK-3563           
1 51858U 22022G   24073.31686075  .00001349  00000+0  10284-3 0  9991
2 51858  53.2180  39.9291 0001458 100.2713 259.8444 15.08846123113361
STARLINK-3560           
1 51859U 22022H   24073.86339540 -.00000524  00000+0 -14857-4 0  9991
2 51859  53.2199  27.4862 0001254  96.1883 263.9252 15.08822495113586
STARLINK-3559           
1 51860U 22022J   24073.86978467  .00001208  00000+0  94005-4 0  9991
2 51860  53.2194  27.4531 0001764  82.2177 277.9015 15.08841508113548
STARLINK-3562           
1 51861U 22022K   24073.92130546  .00000800  00000+0  68357-4 0  9995
2 51861  53.2176  27.2192 0001483  89.1383 270.9779 15.08838064113467
STARLINK-3508           
1 51862U 22022L   24073.86610099  .00000768  00000+0  66322-4 0  9998
2 51862  53.2190  27.4667 0001553  97.8284 262.2885 15.08838826113599
STARLINK-3555           
1 51863U 22022M   24073.84770420  .00000872  00000+0  72901-4 0  9998
2 51863  53.2197  27.5520 0001609  95.5187 264.5988 15.08841198113534
STARLINK-3548           
1 51864U 22022N   24073.85137522  .00001648  00000+0  12161-3 0  9993
2 51864  53.2186  27.4583 0001711  83.0406 277.0780 15.08842667113587
STARLINK-3503           
1 51865U 22022P   24073.57538292  .00001778  00000+0  12976-3 0  9990
2 51865  53.2181  28.7716 0001202  89.5036 270.6094 15.08840510113492
STARLINK-3553           
1 51866U 22022Q   24073.57263580  .00002130  00000+0  15184-3 0  9993
2 51866  53.2197  28.6403 0001477  90.2782 269.8380 15.08851076113490
STARLINK-3590           
1 51867U 22022R   24073.57170169  .00002153  00000+0  15329-3 0  9990
2 51867  53.2174  28.7864 0001368  74.3602 285.7541 15.08842732113496
STARLINK-3578           
1 51868U 22022S   24073.57906065  .00002074  00000+0  14832-3 0  9993
2 51868  53.2175  28.7532 0001193  88.4364 271.6765 15.08842657113495
STARLINK-3588           
1 51869U 22022T   24073.89186792  .00001726  00000+0  12656-3 0  9991
2 51869  53.2189  27.3504 0001723 113.4425 246.6748 15.08829704113548
STARLINK-3591           
1 51870U 22022U   24073.89922926  .00001439  00000+0  10852-3 0  9997
2 51870  53.2196  27.3192 0001415  95.9377 264.1777 15.08836628113594
STARLINK-3567           
1 51871U 22022V   24073.29202465  .00000350  00000+0  40073-4 0  9991
2 51871  53.2189  30.0404 0001608 106.6229 253.4940 15.08838275113564
STARLINK-3554           
1 51872U 22022W   24073.89553958  .00002740  00000+0  19020-3 0  9996
2 51872  53.2189  27.3349 0002262  92.6180 267.5071 15.08844930113543
STARLINK-3582           
1 51873U 22022X   24073.87810620  .00005834  00000+0  38440-3 0  9991
2 51873  53.2174  27.4233 0001520  99.7578 260.3586 15.08833434113545
STARLINK-3574           
1 51874U 22022Y   24073.28834073  .00000262  00000+0  34579-4 0  9995
2 51874  53.2186  30.0604 0001428 101.8304 258.2848 15.08844227113448
STARLINK-3585           
1 51875U 22022Z   24073.86241521  .00000385  00000+0  42308-4 0  9995
2 51875  53.2176  27.3958 0001439  96.0202 264.0954 15.08837793113547
STARLINK-3583           
1 51876U 22022AA  24073.88079457  .00008702  00000+0  56357-3 0  9994
2 51876  53.2166  27.4007 0001237 100.2804 259.8328 15.08877568113546
STARLINK-3556           
1 51877U 22022AB  24073.86334543  .00001760  00000+0  12863-3 0  9994
2 51877  53.2193  17.4775 0001670 103.5895 256.5283 15.08839946113671
STARLINK-3575           
1 51878U 22022AC  24073.60849796  .00002890  00000+0  19951-3 0  9998
2 51878  53.2179  28.6208 0001435  99.6787 260.4367 15.08851888113503
STARLINK-3572           
1 51879U 22022AD  24073.85598739  .00001552  00000+0  11558-3 0  9993
2 51879  53.2193  17.5103 0001419  95.5580 264.5574 15.08830136113675
STARLINK-3566           
1 51880U 22022AE  24073.87710778 -.00000578  00000+0 -18200-4 0  9997
2 51880  53.2173  27.1392 0001217 108.4028 251.7097 15.08846530113548
STARLINK-3504           
1 51881U 22022AF  24073.84862392 -.00000093  00000+0  12274-4 0  9991
2 51881  53.2209  17.5459 0001744  90.3516 269.7676 15.08837609113721
STARLINK-3570           
1 51882U 22022AG  24073.86061967  .00002717  00000+0  18872-3 0  9996
2 51882  53.2183  17.5005 0001403  94.8609 265.2543 15.08841889113723
STARLINK-3576           
1 51883U 22022AH  24073.85968734  .00002834  00000+0  19610-3 0  9995
2 51883  53.2195  17.6767 0001665  98.3052 261.8129 15.08840827113660
STARLINK-3577           
1 51884U 22022AJ  24073.85230470 -.00000151  00000+0  85730-5 0  9994
2 51884  53.2186  17.5289 0001395  86.3906 273.7246 15.08836145113754
STARLINK-3584           
1 51885U 22022AK  24073.83758699  .00001907  00000+0  13787-3 0  9991
2 51885  53.2179  17.5980 0001547  87.9235 272.1935 15.08838982113665
STARLINK-3565           
1 51886U 22022AL  24073.84494177  .00004811  00000+0  32010-3 0  9998
2 51886  53.2182  17.5635 0002176  80.6847 279.4391 15.08849498113676
